     3.00           N                   E                   RINEX VERSION / TYPE
BRD_USR             ESA                 20190104 081731  UTCPGM / RUN BY / DATE
 GAL   3.7750E+01 -1.9531E-02  1.4648E-03  0.0000E+00       IONOSPHERIC CORR
GAUT  2.7939677238E-09-1.776356839E-15 432000 2034 GSTB   0 TIME SYSTEM CORR
GPGA -3.0559021980E-09-1.154631946E-14 432000 2034 GSTB   0 TIME SYSTEM CORR
                                                            END OF HEADER
E21 2019 01 04 06 20 00-5.127077456564E-04-1.875832822407E-12 0.000000000000E+00
     1.180000000000E+02 1.976562500000E+02 2.388670926303E-09-1.443324684929E+00
     9.046867489815E-06 4.979351069778E-05 9.724870324135E-06 5.440641014099E+03
     4.548000000000E+05 1.862645149231E-09-2.827670857578E+00-2.235174179077E-08
     9.899110314364E-01 1.428437500000E+02-4.103645533537E-01-5.278434153684E-09
     2.250093725435E-10 2.580000000000E+02 2.034000000000E+03 0.000000000000E+00
     3.120000000000E+00 0.000000000000E+00-2.561137080193E-09 0.000000000000E+00
     4.555000000000E+05 0.000000000000E+00 0.000000000000E+00 0.000000000000E+00
E25 2019 01 04 05 20 00 1.934216939844E-03-1.132605120802E-11 0.000000000000E+00
     1.120000000000E+02 1.915625000000E+02 2.497961192967E-09 2.225538938790E+00
     8.821487426758E-06 2.211254322901E-04 7.845461368561E-06 5.440632930756E+03
     4.512000000000E+05 1.303851604462E-08-2.827660876088E+00 3.911554813385E-08
     9.899165758960E-01 1.882500000000E+02-1.382405815162E+00-5.260933424708E-09
     1.957224383395E-10 2.580000000000E+02 2.034000000000E+03 0.000000000000E+00
     3.120000000000E+00 0.000000000000E+00-1.164153218269E-09 0.000000000000E+00
     4.555000000000E+05 0.000000000000E+00 0.000000000000E+00 0.000000000000E+00
E27 2019 01 04 06 20 00 5.567283369601E-04-7.631228982063E-12 0.000000000000E+00
     1.180000000000E+02 2.161875000000E+02 2.480103306258E-09-1.388874704321E-01
     1.000426709652E-05 2.089672489092E-04 8.914619684219E-06 5.440633182526E+03
     4.548000000000E+05 3.539025783539E-08-2.827654424620E+00 7.078051567078E-08
     9.898836470729E-01 1.571562500000E+02-9.279838073476E-01-5.350580015992E-09
     2.082229590363E-10 2.580000000000E+02 2.034000000000E+03 0.000000000000E+00
     3.120000000000E+00 0.000000000000E+00-3.026798367500E-09 0.000000000000E+00
     4.555000000000E+05 0.000000000000E+00 0.000000000000E+00 0.000000000000E+00
E30 2019 01 04 06 20 00 5.216267716605E-03-3.049649421882E-11 0.000000000000E+00
     1.180000000000E+02 2.075937500000E+02 2.438315851357E-09-7.907456629423E-01
     9.704381227493E-06 2.966896863654E-04 8.177012205124E-06 5.440626422882E+03
     4.548000000000E+05-5.215406417847E-08-2.821645746083E+00-5.215406417847E-08
     9.878977708903E-01 1.771250000000E+02 4.891288585688E-01-5.379866950196E-09
     2.464388365953E-10 2.580000000000E+02 2.034000000000E+03 0.000000000000E+00
     3.120000000000E+00 0.000000000000E+00-3.026798367500E-09 0.000000000000E+00
     4.555000000000E+05 0.000000000000E+00 0.000000000000E+00 0.000000000000E+00
E31 2019 01 04 06 20 00 9.414762607776E-04-9.592326932761E-12 0.000000000000E+00
     1.180000000000E+02 1.800312500000E+02 2.410814705824E-09-1.885091721362E+00
     8.516013622284E-06 2.568609779701E-04 9.283423423767E-06 5.440633758545E+03
     4.548000000000E+05 2.793967723846E-08-2.827703024221E+00 1.862645149231E-09
     9.898871010225E-01 1.530312500000E+02-1.537952865019E+00-5.221288916213E-09
     2.103659054415E-10 2.580000000000E+02 2.034000000000E+03 0.000000000000E+00
     3.120000000000E+00 0.000000000000E+00-2.328306436539E-10 0.000000000000E+00
     4.555000000000E+05 0.000000000000E+00 0.000000000000E+00 0.000000000000E+00
E36 2019 01 04 06 20 00 7.637316011824E-04-4.462208380573E-12 0.000000000000E+00
     1.180000000000E+02-1.800625000000E+02 2.751186026512E-09 8.336909251562E-01
    -8.402392268181E-06 3.211821895093E-04 7.174909114838E-06 5.440601835251E+03
     4.548000000000E+05-2.421438694000E-08-7.446555876771E-01 1.676380634308E-08
     9.852642886695E-01 1.995312500000E+02-1.656176911628E+00-5.428797559780E-09
    -2.210806374674E-10 2.580000000000E+02 2.034000000000E+03 0.000000000000E+00
     3.120000000000E+00 5.600000000000E+01 1.164153218269E-09 0.000000000000E+00
     4.555000000000E+05 0.000000000000E+00 0.000000000000E+00 0.000000000000E+00
E24 2019 01 04 05 10 00 6.304002890829E-03-1.961097950698E-11 0.000000000000E+00
     1.110000000000E+02 1.887812500000E+02 2.463674050485E-09 1.087546824805E+00
     8.672475814819E-06 4.604692803696E-04 8.162111043930E-06 5.440626041412E+03
     4.506000000000E+05-1.862645149231E-09-2.821567488743E+00 2.793967723846E-08
     9.879131490852E-01 1.760937500000E+02 4.438639524867E-01-5.290934674381E-09
     1.871506527187E-10 5.210000000000E+02 2.034000000000E+03 0.000000000000E+00
     3.120000000000E+00 0.000000000000E+00 4.284083843231E-08 4.796311259270E-08
     4.555150000000E+05 0.000000000000E+00 0.000000000000E+00 0.000000000000E+00
E24 2019 01 04 05 10 00 6.303997535724E-03-1.959676865226E-11 0.000000000000E+00
     1.110000000000E+02 1.887812500000E+02 2.463674050485E-09 1.087546824805E+00
     8.672475814819E-06 4.604692803696E-04 8.162111043930E-06 5.440626041412E+03
     4.506000000000E+05-1.862645149231E-09-2.821567488743E+00 2.793967723846E-08
     9.879131490852E-01 1.760937500000E+02 4.438639524867E-01-5.290934674381E-09
     1.871506527187E-10 2.580000000000E+02 2.034000000000E+03 0.000000000000E+00
     3.120000000000E+00 0.000000000000E+00 4.284083843231E-08 0.000000000000E+00
     4.555500000000E+05 0.000000000000E+00 0.000000000000E+00 0.000000000000E+00
E12 2019 01 04 06 20 00 5.865769227967E-03 8.438405529887E-11 0.000000000000E+00
     1.180000000000E+02-1.918750000000E+02 2.714398779890E-09 1.662593723828E+00
    -8.895993232727E-06 3.672642633319E-04 6.144866347313E-06 5.440611135483E+03
     4.548000000000E+05-2.607703208923E-08-7.393571119800E-01-5.401670932770E-08
     9.820330727507E-01 2.180312500000E+02-9.012502463360E-01-5.459155967187E-09
    -2.714398779890E-10 5.210000000000E+02 2.034000000000E+03 0.000000000000E+00
     3.120000000000E+00 0.000000000000E+00-1.559965312481E-08-1.606531441212E-08
     4.557250000000E+05 0.000000000000E+00 0.000000000000E+00 0.000000000000E+00
E19 2019 01 04 06 20 00-9.384704753757E-06 3.268496584496E-13 0.000000000000E+00
     1.180000000000E+02 7.750000000000E+00 3.674795927144E-09-2.688653485873E+00
     2.440065145493E-07 1.415683655068E-04 4.012137651443E-06 5.440602186203E+03
     4.548000000000E+05 1.862645149231E-09 1.362575887452E+00-1.303851604462E-08
     9.579189952969E-01 2.531875000000E+02 2.200870198872E+00-5.757025517507E-09
     6.500270762369E-11 5.210000000000E+02 2.034000000000E+03 0.000000000000E+00
     3.120000000000E+00 0.000000000000E+00-8.614733815193E-09-9.080395102501E-09
     4.557250000000E+05 0.000000000000E+00 0.000000000000E+00 0.000000000000E+00
E12 2019 01 04 06 20 00 5.865769460797E-03 8.436984444415E-11 0.000000000000E+00
     1.180000000000E+02-1.918750000000E+02 2.714398779890E-09 1.662593723828E+00
    -8.895993232727E-06 3.672642633319E-04 6.144866347313E-06 5.440611135483E+03
     4.548000000000E+05-2.607703208923E-08-7.393571119800E-01-5.401670932770E-08
     9.820330727507E-01 2.180312500000E+02-9.012502463360E-01-5.459155967187E-09
    -2.714398779890E-10 2.580000000000E+02 2.034000000000E+03 0.000000000000E+00
     3.120000000000E+00 0.000000000000E+00-1.559965312481E-08 0.000000000000E+00
     4.557500000000E+05 0.000000000000E+00 0.000000000000E+00 0.000000000000E+00
E14 2019 01 04 06 20 00 6.465022044722E-03-5.570655048359E-12 0.000000000000E+00
     1.180000000000E+02-4.831250000000E+01 3.119772808203E-09-1.369522783630E+00
    -7.618218660355E-07 1.663793823682E-01 3.138557076454E-06 5.289335248947E+03
     4.548000000000E+05 5.016103386879E-06-1.339357297265E+00 4.963949322701E-06
     8.825926177880E-01 2.644375000000E+02 1.451627403342E+00-3.685867816904E-09
    -1.090402562501E-09 2.580000000000E+02 2.034000000000E+03 0.000000000000E+00
     3.120000000000E+00 5.600000000000E+01 3.306195139885E-08 0.000000000000E+00
     4.557500000000E+05 0.000000000000E+00 0.000000000000E+00 0.000000000000E+00
E19 2019 01 04 06 20 00-9.384588338435E-06 2.984279490192E-13 0.000000000000E+00
     1.180000000000E+02 7.750000000000E+00 3.674795927144E-09-2.688653485873E+00
     2.440065145493E-07 1.415683655068E-04 4.012137651443E-06 5.440602186203E+03
     4.548000000000E+05 1.862645149231E-09 1.362575887452E+00-1.303851604462E-08
     9.579189952969E-01 2.531875000000E+02 2.200870198872E+00-5.757025517507E-09
     6.500270762369E-11 2.580000000000E+02 2.034000000000E+03 0.000000000000E+00
     3.120000000000E+00 0.000000000000E+00-8.614733815193E-09 0.000000000000E+00
     4.557500000000E+05 0.000000000000E+00 0.000000000000E+00 0.000000000000E+00
E26 2019 01 04 06 20 00 5.059211456683E-03-4.327205260779E-11 0.000000000000E+00
     1.180000000000E+02-2.157812500000E+02 2.780830118451E-09-1.833222945597E+00
    -9.940937161446E-06 3.247937420383E-04 6.007030606270E-06 5.440616558075E+03
     4.548000000000E+05 1.490116119385E-08-7.357011670552E-01 7.450580596924E-09
     9.783768937590E-01 2.204687500000E+02-2.126036810127E+00-5.497371844746E-09
    -2.314382117591E-10 2.580000000000E+02 2.034000000000E+03 0.000000000000E+00
     3.120000000000E+00 0.000000000000E+00 1.164153218269E-09 0.000000000000E+00
     4.557500000000E+05 0.000000000000E+00 0.000000000000E+00 0.000000000000E+00
